#aV2015 12 26  0  0  0.00000000     288 DD+AD WGS84 FIT  NGA
## 1876 518400.00000000   300.00000000 57382 0.0000000000000
+   31     1  2  3  5  6  7  8  9 10 11 12 13 14 15 16 17 18
+         19 20 21 22 23 24 25 26 27 28 29 30 31 32  0  0  0
+          0  0  0  0  0  0  0  0  0  0  0  0  0  0  0  0  0
+          0  0  0  0  0  0  0  0  0  0  0  0  0  0  0  0  0
+          0  0  0  0  0  0  0  0  0  0  0  0  0  0  0  0  0
++         2  2  2  2  2  2  2  2  2  2  2  2  2  2  2  2  2
++         2  2  2  2  2  2  2  2  2  2  2  2  2  2  0  0  0
++         0  0  0  0  0  0  0  0  0  0  0  0  0  0  0  0  0
++         0  0  0  0  0  0  0  0  0  0  0  0  0  0  0  0  0
++         0  0  0  0  0  0  0  0  0  0  0  0  0  0  0  0  0
%c cc cc ccc ccc cccc cccc cccc cccc ccccc ccccc ccccc ccccc
%c cc cc ccc ccc cccc cccc cccc cccc ccccc ccccc ccccc ccccc
%f  0.0000000  0.000000000  0.00000000000  0.000000000000000
%f  0.0000000  0.000000000  0.00000000000  0.000000000000000
%i    0    0    0    0      0      0      0      0         0
%i    0    0    0    0      0      0      0      0         0
/*      NGA, ST. LOUIS,MO.                                  
/*   EPHEMERIS COMPUTED FROM 2 DAYS OF DATA                 
/*   EPOCHA v2.4 SMOOTHER                                   
/*   G1762 IERS2010 SATAF SATAPC                            
*  2015 12 26  1 15  0.00000000
P  1 -17232.129034 -13556.564269 -15212.123774      7.532613                    
V  1  19133.018016   1329.305078 -22765.518042      0.009234                    
P  2  -6676.664110  14818.140429  21353.543439    598.433102                    
V  2 -26030.024754  -3962.221349  -5921.399417      0.005168                    
P  3 -12767.728016 -22636.975579   5441.284744     -2.813321                    
V  3    148.941315  -7465.074809 -30706.579623     -0.051851                    
P  5    -49.790965  23539.078698  12040.671582   -161.528007                    
V  5  -8381.016301 -13358.871677  26123.387573      0.036087                    
P  6 -20096.439254   7774.447499  15523.055275    118.371632                    
V  6 -19171.632026  -4951.898298 -22351.474718      0.063588                    
P  7 -26071.911141  -5909.330064   1614.535116    476.123506                    
V  7   2241.820440  -1863.864822  31579.912113     -0.012891                    
P  8    416.109264 -19969.868498 -17450.987195    -17.587761                    
V  8  15240.918896 -16316.905166  18977.652536     -0.013995                    
P  9 -17457.521354   -774.686710  19988.312919     36.353260                    
V  9  14994.872764 -20570.753619  12279.329270      0.079987                    
P 10  14146.348643  -5706.294746 -21737.037063     46.695834                    
V 10  10032.061440  25735.805088   -270.906715      0.033061                    
P 11 -12343.465809 -13613.116779 -19747.529314   -623.767478                    
V 11  23374.974039  -6371.171401 -10451.044230     -0.020796                    
P 12  10094.409105  24497.609592   3008.917183    356.134064                    
V 12   -395.293954   4253.179002 -31946.007739      0.028560                    
P 13  -9719.254838  21477.656851 -12464.856248   -173.957954                    
V 13 -12426.095326   9549.602768  26339.855874     -0.026592                    
P 14  21053.852536 -13021.509246  -9170.641491     13.192933                    
V 14  -6376.564546  10538.460939 -28966.297715     -0.023525                    
P 15   3802.933950  18453.659905 -18707.116387   -289.025990                    
V 15 -15497.971660  18079.481038  15119.481992     -0.019046                    
P 16   1640.778596 -23033.570571  12691.193362    -54.069568                    
V 16   6533.664320  15092.240219  26742.269818      0.033885                    
P 17 -20597.282408  13129.078706  -9850.595672   -197.457544                    
V 17   6891.586634 -11298.236910 -28746.284845     -0.008821                    
P 18  17716.334150   7190.841100 -18029.605464    466.441129                    
V 18   7349.758671  22910.156949  15637.573017      0.038707                    
P 19 -21363.114245   7876.940769 -14279.551905   -524.025261                    
V 19  11198.400470 -13579.536785 -24216.320430     -0.002502                    
P 20  13119.252642  22924.423527  -2597.971331    381.039692                    
V 20  -2205.383673   4526.352213  30763.972223      0.027475                    
P 21  26515.695092   2872.569432   -962.406027   -501.618816                    
V 21   1595.904686   3631.350405  30963.673356     -0.021713                    
P 22  11666.731014 -12098.290641 -20331.993897    417.734149                    
V 22  11184.387545  24027.991952  -7954.161759     -0.030794                    
P 23  -9723.462442 -12507.939555  21445.594379   -151.619203                    
V 23  17464.978844 -20513.856056  -4509.957104     -0.019643                    
P 24  14670.586894  14288.627157 -17050.738312     -9.806635                    
V 24 -21573.924328  -1151.159950 -19393.001288     -0.004796                    
P 25  16189.349606  15598.495158  14182.910585    -88.801686                    
V 25   4926.681252  17470.335204 -24488.496445     -0.061898                    
P 26   8179.325236 -16263.182473  19336.816623   -182.164868                    
V 26  10140.959426  22398.498896  14578.523216     -0.172111                    
P 27   9712.438814 -22673.024180  -9692.232917     47.592211                    
V 27   9558.754121  -8103.814328  28733.375299      0.033666                    
P 28 -13723.846352   4019.495305 -21748.524555    490.836050                    
V 28  -8402.890828 -27853.694988     90.171749      0.026653                    
P 29  15423.782538   4330.647810  21194.133362    649.588575                    
V 29 -17537.070753  20322.456056   8653.503244      0.012373                    
P 30 -24926.678124    947.490466  -9238.527619     75.918791                    
V 30 -10807.841343  -5257.160130  28546.359947      0.050452                    
P 31  19222.586152  -7968.552346  16832.614954    289.767873                    
V 31  20345.555586   5253.901528 -20549.662393     -0.015858                    
P 32  -4221.006933 -26120.066931  -4635.118380     59.653822                    
V 32   4247.879171   4707.747050 -30361.111605      0.121882                    
EOF
